INTELSAT 11         [PM]
1 32253C 07044B   22075.85136574 -.00000178  00000-0  00000-0 0   757
2 32253   0.0014 182.3189 0002007 175.7570  79.8192  1.00272990    12
INTELSAT 11             
1 32253C 07044B   22076.00000000 -.00000125  00000-0  00000-0 0   762
2 32253   0.0011 181.4628 0002068 177.8347 132.2534  1.00273225    15
INTELSAT 11         [PM]
1 32253C 07044B   22077.34925926 -.00000183  00000-0  00000-0 0   778
2 32253   0.0000 178.1855 0002057 190.9868 249.4494  1.00272823    19
HORIZONS-2              
1 32388C 07063B   22073.00000000 -.00000092  00000-0  00000-0 0   739
2 32388   0.0115 106.9856 0002997 234.8844 274.5577  1.00273741    11
HORIZONS-2              
1 32388C 07063B   22076.00000000 -.00000092  00000-0  00000-0 0   765
2 32388   0.0196 250.0970 0003080 104.3752 264.9261  1.00270933    14
HORIZONS-2          [PM]
1 32388C 07063B   22078.62564815 -.00000117  00000-0  00000-0 0   784
2 32388   0.0098 246.7339 0003064 114.3460 126.1285  1.00272307    17
GALAXY 18               
1 32951C 08024A   22073.00000000  .00000115  00000-0  00000-0 0   738
2 32951   0.0172 230.8307 0002983 129.6426  48.1119  1.00269727    16
GALAXY 18           [PM]
1 32951C 08024A   22075.13263889  .00000118  00000-0  00000-0 0   755
2 32951   0.0043 187.6312 0003175 148.4725 122.3417  1.00270450    14
GALAXY 18               
1 32951C 08024A   22076.00000000  .00000107  00000-0  00000-0 0   765
2 32951   0.0087 207.2825 0003165 145.3604  58.9070  1.00270121    15
INTELSAT 25             
1 33153C 08034A   22073.00000000 -.00000134  00000-0  00000-0 0   736
2 33153   0.0277 229.7936 0002946 133.0504 137.2336  1.00272282    18
INTELSAT 25         [PM]
1 33153C 08034A   22075.88437500 -.00000134  00000-0  00000-0 0   755
2 33153   0.0150 197.4955 0003074 156.9155 106.8956  1.00272188    14
INTELSAT 25             
1 33153C 08034A   22076.00000000 -.00000134  00000-0  00000-0 0   762
2 33153   0.0206 215.9418 0003110 150.6553 136.4482  1.00272283    19
GALAXY 19               
1 33376C 08045A   22073.00000000 -.00000049  00000-0  00000-0 0   730
2 33376   0.0030 155.9932 0002994 197.2977  81.2926  1.00270549    14
GALAXY 19               
1 33376C 08045A   22076.00000000 -.00000050  00000-0  00000-0 0   768
2 33376   0.0054 154.4354 0003080 209.1796  73.9193  1.00269637    11
GALAXY 19           [PM]
1 33376C 08045A   22076.05664352 -.00000056  00000-0  00000-0 0   765
2 33376   0.0054 154.0317 0003108 207.6424  96.3073  1.00271464    15
INTELSAT 14             
1 36097C 09064A   22073.00000000 -.00000183  00000-0  00000-0 0   734
2 36097   0.0176 119.8617 0002623 239.4674 127.2639  1.00271470    15
INTELSAT 14             
1 36097C 09064A   22076.00000000 -.00000179  00000-0  00000-0 0   765
2 36097   0.0045 194.2822 0002675 169.7615 125.4790  1.00273504    10
INTELSAT 14         [PM]
1 36097C 09064A   22082.87517361 -.00000183  00000-0  00000-0 0   822
2 36097   0.0182 109.5173 0002671 275.6283  66.2375  1.00272700    12
INTELSAT 15             
1 36106C 09067A   22073.00000000 -.00000090  00000-0  00000-0 0   735
2 36106   0.0001 128.8903 0002527 226.6072 261.2316  1.00271608    18
INTELSAT 15             
1 36106C 09067A   22076.00000000 -.00000095  00000-0  00000-0 0   766
2 36106   0.0001 138.7413 0002585 223.8065 257.1410  1.00272705    17
INTELSAT 15         [PM]
1 36106C 09067A   22080.55730324 -.00000098  00000-0  00000-0 0   808
2 36106   0.0336 304.2475 0002526  76.3806  84.1976  1.00271036    16
INTELSAT 16             
1 36397C 10006A   22073.00000000 -.00000151  00000-0  00000-0 0   730
2 36397   0.0001 135.5147 0002026 222.0895  97.7800  1.00270939    18
INTELSAT 16             
1 36397C 10006A   22076.00000000 -.00000155  00000-0  00000-0 0   760
2 36397   0.0028 135.5202 0002122 230.3829  92.4483  1.00271874    13
INTELSAT 16         [PM]
1 36397C 10006A   22081.00634259 -.00000156  00000-0  00000-0 0   812
2 36397   0.0281 293.1924 0002243  95.0970  77.2745  1.00270136    15
INTELSAT 17             
1 37238C 10065B   22073.00000000  .00000089  00000-0  00000-0 0   739
2 37238   0.0272 211.2564 0002910 143.9546 242.3715  1.00271628    13
INTELSAT 17         [PM]
1 37238C 10065B   22075.53407407  .00000089  00000-0  00000-0 0   753
2 37238   0.0239 198.9604 0002745 152.0066  81.3860  1.00270475    17
INTELSAT 17             
1 37238C 10065B   22076.00000000  .00000089  00000-0  00000-0 0   765
2 37238   0.0240 202.0160 0002926 159.5438 238.9846  1.00274460    11
INTELSAT NEW DAWN       
1 37392C 11016A   22073.00000000  .00000246  00000-0  00000-0 0   732
2 37392   0.0233 138.7570 0001095 285.0574 140.5563  1.00264547    15
INTELSAT NEW DAWN       
1 37392C 11016A   22076.00000000  .00000246  00000-0  00000-0 0   768
2 37392   0.0195 205.2838 0001124 210.8040 151.2398  1.00273473    19
INTELSAT NEW DAWN   [PM]
1 37392C 11016A   22079.12842593  .00000246  00000-0  00000-0 0   798
2 37392   0.0112 195.5367 0001259 224.5296 196.6110  1.00269591    11
INTELSAT 18             
1 37834C 11056A   22073.00000000  .00000142  00000-0  00000-0 0   732
2 37834   0.0142  49.0540 0001996 291.1442  11.3793  1.00272563    15
INTELSAT 18             
1 37834C 11056A   22076.00000000  .00000143  00000-0  00000-0 0   769
2 37834   0.0197  56.9443 0002183 296.4963   1.1063  1.00269964    17
INTELSAT 18         [PM]
1 37834C 11056A   22079.28892361  .00000142  00000-0  00000-0 0   793
2 37834   0.0248 300.8516 0002092  62.9468  97.9936  1.00272914    12
INTELSAT 22             
1 38098C 12011A   22073.00000000  .00000032  00000-0  00000-0 0   735
2 38098   0.0199 235.4266 0002967 114.5612 253.6945  1.00271477    15
INTELSAT 22         [PM]
1 38098C 12011A   22073.51525463  .00000032  00000-0  00000-0 0   736
2 38098   0.0160 224.6268 0002956 126.5735  78.4860  1.00271443    14
INTELSAT 22             
1 38098C 12011A   22076.00000000  .00000032  00000-0  00000-0 0   761
2 38098   0.0102 211.2903 0003049 148.9855 246.3724  1.00271595    16
INTELSAT 19             
1 38356C 12030A   22073.00000000  .00000021  00000-0  00000-0 0   731
2 38356   0.0029 150.6903 0003066 201.9187 344.9716  1.00270929    10
INTELSAT 19             
1 38356C 12030A   22076.00000000 -.00000006  00000-0  00000-0 0   761
2 38356   0.0059 148.7707 0003138 212.1725 339.5961  1.00271195    13
INTELSAT 19         [PM]
1 38356C 12030A   22079.81216435  .00000033  00000-0  00000-0 0   796
2 38356   0.0221 257.8094 0003120 115.2560 263.6163  1.00272104    18
INTELSAT 20             
1 38740C 12043A   22073.00000000  .00000066  00000-0  00000-0 0   731
2 38740   0.0151 150.5412 0001552  62.7174  26.8193  1.00270862    15
INTELSAT 20         [PM]
1 38740C 12043A   22075.93819444  .00000067  00000-0  00000-0 0   758
2 38740   0.0145 153.5056 0001260  45.9250  21.2953  1.00271993    18
INTELSAT 20             
1 38740C 12043A   22076.00000000  .00000066  00000-0  00000-0 0   767
2 38740   0.0137 162.8497 0001303  41.9106  38.2801  1.00270327    15
INTELSAT 21             
1 38749C 12045A   22073.00000000 -.00000195  00000-0  00000-0 0   736
2 38749   0.0150 119.5509 0002254 229.0260 125.0081  1.00271115    19
INTELSAT 21         [PM]
1 38749C 12045A   22075.96688657 -.00000195  00000-0  00000-0 0   755
2 38749   0.0134 224.0235 0002270 132.0095 108.5502  1.00272888    18
INTELSAT 21             
1 38749C 12045A   22076.00000000 -.00000195  00000-0  00000-0 0   762
2 38749   0.0134 224.1040 0002280 132.3080 120.1248  1.00272926    11
INTELSAT 21         [PM]
1 38749C 12045A   22077.53636574 -.00000192  00000-0  00000-0 0   770
2 38749   0.0083 220.6195 0002227 144.7720 305.7602  1.00272420    19
INTELSAT 23             
1 38867C 12057A   22073.00000000 -.00000195  00000-0  00000-0 0   730
2 38867   0.0151 162.6225 0000685 116.0861 199.8739  1.00272162    15
INTELSAT 23             
1 38867C 12057A   22076.00000000 -.00000193  00000-0  00000-0 0   764
2 38867   0.0142 187.2230 0000314 114.5503 179.7675  1.00269871    18
INTELSAT 23         [PM]
1 38867C 12057A   22076.83626157 -.00000195  00000-0  00000-0 0   764
2 38867   0.0131 185.1161 0000494  23.3056 215.0007  1.00269527    16
INTELSAT 30             
1 40271C 14062A   22073.00000000 -.00000079  00000-0  00000-0 0   731
2 40271   0.0010 180.9856 0001657 309.4413 306.0943  1.00269498    12
INTELSAT 30         [PM]
1 40271C 14062A   22075.12291667 -.00000076  00000-0  00000-0 0   756
2 40271   0.0046 196.2490 0001739 287.4158 359.1859  1.00273145    16
INTELSAT 30             
1 40271C 14062A   22076.00000000 -.00000061  00000-0  00000-0 0   768
2 40271   0.0040 196.9433 0001740 285.2867 317.2418  1.00271158    17
INTELSAT 34             
1 40874C 15039A   22073.00000000 -.00000198  00000-0  00000-0 0   737
2 40874   0.0400 301.1516 0000644 308.2390 226.6972  1.00270710    18
INTELSAT 34             
1 40874C 15039A   22076.00000000 -.00000200  00000-0  00000-0 0   767
2 40874   0.0489 318.2015 0000579 266.5981 254.2486  1.00269335    15
INTELSAT 34         [PM]
1 40874C 15039A   22077.02050926 -.00000197  00000-0  00000-0 0   778
2 40874   0.0403 290.9751 0000395 287.2468 269.2036  1.00273676    10
INTELSAT 31             
1 41581C 16035A   22073.00000000 -.00000061  00000-0  00000-0 0   739
2 41581   0.0113 170.1930 0002185  53.0487 213.2931  1.00270518    16
INTELSAT 31             
1 41581C 16035A   22076.00000000 -.00000060  00000-0  00000-0 0   764
2 41581   0.0112 183.3380 0002040  34.6220 221.5346  1.00269458    13
INTELSAT 31         [PM]
1 41581C 16035A   22076.12012731 -.00000059  00000-0  00000-0 0   769
2 41581   0.0109 184.4634 0002065  29.9183 268.4724  1.00272469    11
INTELSAT 36             
1 41747C 16053A   22073.00000000  .00000000  00000-0  00000-0 0   735
2 41747   0.0001 116.7524 0001608 221.7562 261.5707  1.00271159    17
